{
  "type": "FeatureCollection",
  "features": [
    {
      "type": "Feature",
      "properties": {
        "norad_id": 24876,
        "name": "GPS BIIR-2  (PRN 13)",
        "group": "gnss",
        "lat": 23.095535962213877,
        "lon": -91.3555822750826,
        "alt_km": 20198.535017577487,
        "timestamp": "2025-12-24T09:46:31.245613+00:00",
        "meta_object_name": "GPS BIIR-2  (PRN 13)",
        "meta_object_id": "1997-035A",
        "meta_epoch": "2025-12-23T04:52:08.851872",
        "meta_mean_motion": 2.00563705,
        "meta_eccentricity": 0.0096844,
        "meta_inclination": 55.9001,
        "meta_ra_of_asc_node": 105.4597,
        "meta_arg_of_pericenter": 56.9573,
        "meta_mean_anomaly": 303.9609,
        "meta_ephemeris_type": 0,
        "meta_classification_type": "U",
        "meta_norad_cat_id": 24876,
        "meta_element_set_no": 999,
        "meta_rev_at_epoch": 20842,
        "meta_bstar": 0,
        "meta_mean_motion_dot": 2e-07,
        "meta_mean_motion_ddot": 0,
        "tle_line1": "1 24876U 97035A   25357.20288023  .00000020  00000+0  00000+0 0  9998",
        "tle_line2": "2 24876  55.9001 105.4597 0096844  56.9573 303.9609  2.00563705208420"
      },
      "geometry": {
        "type": "Point",
        "coordinates": [
          -91.3555822750826,
          23.095535962213877
        ]
      }
    },
    {
      "type": "Feature",
      "properties": {
        "norad_id": 26360,
        "name": "GPS BIIR-4  (PRN 20)",
        "group": "gnss",
        "lat": -46.705195391245155,
        "lon": -105.71566526810786,
        "alt_km": 20083.743004474327,
        "timestamp": "2025-12-24T09:46:31.245663+00:00",
        "meta_object_name": "GPS BIIR-4  (PRN 20)",
        "meta_object_id": "2000-025A",
        "meta_epoch": "2025-12-24T00:51:46.954368",
        "meta_mean_motion": 2.00566722,
        "meta_eccentricity": 0.003889,
        "meta_inclination": 55.0519,
        "meta_ra_of_asc_node": 26.3811,
        "meta_arg_of_pericenter": 243.065,
        "meta_mean_anomaly": 91.4559,
        "meta_ephemeris_type": 0,
        "meta_classification_type": "U",
        "meta_norad_cat_id": 26360,
        "meta_element_set_no": 999,
        "meta_rev_at_epoch": 18775,
        "meta_bstar": 0,
        "meta_mean_motion_dot": -5.6e-07,
        "meta_mean_motion_ddot": 0,
        "tle_line1": "1 26360U 00025A   25358.03596012 -.00000056  00000+0  00000+0 0  9993",
        "tle_line2": "2 26360  55.0519  26.3811 0038890 243.0650  91.4559  2.00566722187754"
      },
      "geometry": {
        "type": "Point",
        "coordinates": [
          -105.71566526810786,
          -46.705195391245155
        ]
      }
    },
    {
      "type": "Feature",
      "properties": {
        "norad_id": 26407,
        "name": "GPS BIIR-5  (PRN 22)",
        "group": "gnss",
        "lat": 54.304739704894736,
        "lon": -59.6080491405862,
        "alt_km": 20432.977749138772,
        "timestamp": "2025-12-24T09:46:31.245682+00:00",
        "meta_object_name": "GPS BIIR-5  (PRN 22)",
        "meta_object_id": "2000-040A",
        "meta_epoch": "2025-12-24T00:49:48.055008",
        "meta_mean_motion": 2.00568088,
        "meta_eccentricity": 0.0125397,
        "meta_inclination": 54.8883,
        "meta_ra_of_asc_node": 222.1199,
        "meta_arg_of_pericenter": 301.9909,
        "meta_mean_anomaly": 231.2222,
        "meta_ephemeris_type": 0,
        "meta_classification_type": "U",
        "meta_norad_cat_id": 26407,
        "meta_element_set_no": 999,
        "meta_rev_at_epoch": 18643,
        "meta_bstar": 0,
        "meta_mean_motion_dot": 6.5e-07,
        "meta_mean_motion_ddot": 0,
        "tle_line1": "1 26407U 00040A   25358.03458397  .00000065  00000+0  00000+0 0  9994",
        "tle_line2": "2 26407  54.8883 222.1199 0125397 301.9909 231.2222  2.00568088186434"
      },
      "geometry": {
        "type": "Point",
        "coordinates": [
          -59.6080491405862,
          54.304739704894736
        ]
      }
    },
    {
      "type": "Feature",
      "properties": {
        "norad_id": 27663,
        "name": "GPS BIIR-8  (PRN 16)",
        "group": "gnss",
        "lat": -30.762954542266485,
        "lon": 66.64976153942325,
        "alt_km": 20567.739363742592,
        "timestamp": "2025-12-24T09:46:31.245697+00:00",
        "meta_object_name": "GPS BIIR-8  (PRN 16)",
        "meta_object_id": "2003-005A",
        "meta_epoch": "2025-12-23T07:51:19.360224",
        "meta_mean_motion": 2.00570305,
        "meta_eccentricity": 0.0147825,
        "meta_inclination": 54.921,
        "meta_ra_of_asc_node": 221.9571,
        "meta_arg_of_pericenter": 51.9554,
        "meta_mean_anomaly": 106.5355,
        "meta_ephemeris_type": 0,
        "meta_classification_type": "U",
        "meta_norad_cat_id": 27663,
        "meta_element_set_no": 999,
        "meta_rev_at_epoch": 16778,
        "meta_bstar": 0,
        "meta_mean_motion_dot": 6.6e-07,
        "meta_mean_motion_ddot": 0,
        "tle_line1": "1 27663U 03005A   25357.32730741  .00000066  00000+0  00000+0 0  9991",
        "tle_line2": "2 27663  54.9210 221.9571 0147825  51.9554 106.5355  2.00570305167786"
      },
      "geometry": {
        "type": "Point",
        "coordinates": [
          66.64976153942325,
          -30.762954542266485
        ]
      }
    },
    {
      "type": "Feature",
      "properties": {
        "norad_id": 28190,
        "name": "GPS BIIR-11 (PRN 19)",
        "group": "gnss",
        "lat": 13.044100684158876,
        "lon": -67.92138036153841,
        "alt_km": 20434.794483594032,
        "timestamp": "2025-12-24T09:46:31.245711+00:00",
        "meta_object_name": "GPS BIIR-11 (PRN 19)",
        "meta_object_id": "2004-009A",
        "meta_epoch": "2025-12-22T01:59:41.237952",
        "meta_mean_motion": 2.00560473,
        "meta_eccentricity": 0.01084919,
        "meta_inclination": 54.9772,
        "meta_ra_of_asc_node": 282.8425,
        "meta_arg_of_pericenter": 167.7907,
        "meta_mean_anomaly": 330.6754,
        "meta_ephemeris_type": 0,
        "meta_classification_type": "U",
        "meta_norad_cat_id": 28190,
        "meta_element_set_no": 999,
        "meta_rev_at_epoch": 15939,
        "meta_bstar": 0,
        "meta_mean_motion_dot": -2.4e-07,
        "meta_mean_motion_ddot": 0,
        "tle_line1": "1 28190U 04009A   25356.08311618 -.00000024  00000+0  00000+0 0  9997",
        "tle_line2": "2 28190  54.9772 282.8425 0108491 167.7907 330.6754  2.00560473159399"
      },
      "geometry": {
        "type": "Point",
        "coordinates": [
          -67.92138036153841,
          13.044100684158876
        ]
      }
    },
    {
      "type": "Feature",
      "properties": {
        "norad_id": 28474,
        "name": "GPS BIIR-13 (PRN 02)",
        "group": "gnss",
        "lat": 53.64475724507419,
        "lon": 42.515779782547,
        "alt_km": 20456.524446843763,
        "timestamp": "2025-12-24T09:46:31.245724+00:00",
        "meta_object_name": "GPS BIIR-13 (PRN 02)",
        "meta_object_id": "2004-045A",
        "meta_epoch": "2025-12-23T11:54:23.370912",
        "meta_mean_motion": 2.0057002,
        "meta_eccentricity": 0.0170954,
        "meta_inclination": 55.2353,
        "meta_ra_of_asc_node": 331.9733,
        "meta_arg_of_pericenter": 309.7322,
        "meta_mean_anomaly": 189.3988,
        "meta_ephemeris_type": 0,
        "meta_classification_type": "U",
        "meta_norad_cat_id": 28474,
        "meta_element_set_no": 999,
        "meta_rev_at_epoch": 15490,
        "meta_bstar": 0,
        "meta_mean_motion_dot": -6.3e-07,
        "meta_mean_motion_ddot": 0,
        "tle_line1": "1 28474U 04045A   25357.49610383 -.00000063  00000+0  00000+0 0  9992",
        "tle_line2": "2 28474  55.2353 331.9733 0170954 309.7322 189.3988  2.00570020154902"
      },
      "geometry": {
        "type": "Point",
        "coordinates": [
          42.515779782547,
          53.64475724507419
        ]
      }
    },
    {
      "type": "Feature",
      "properties": {
        "norad_id": 28874,
        "name": "GPS BIIRM-1 (PRN 17)",
        "group": "gnss",
        "lat": 30.13640322394771,
        "lon": -55.82999074965165,
        "alt_km": 20256.53100704477,
        "timestamp": "2025-12-24T09:46:31.245758+00:00",
        "meta_object_name": "GPS BIIRM-1 (PRN 17)",
        "meta_object_id": "2005-038A",
        "meta_epoch": "2025-12-23T15:29:31.408224",
        "meta_mean_motion": 2.005777,
        "meta_eccentricity": 0.01313078,
        "meta_inclination": 55.0222,
        "meta_ra_of_asc_node": 280.2619,
        "meta_arg_of_pericenter": 293.8052,
        "meta_mean_anomaly": 272.4454,
        "meta_ephemeris_type": 0,
        "meta_classification_type": "U",
        "meta_norad_cat_id": 28874,
        "meta_element_set_no": 999,
        "meta_rev_at_epoch": 14831,
        "meta_bstar": 0,
        "meta_mean_motion_dot": -2e-07,
        "meta_mean_motion_ddot": 0,
        "tle_line1": "1 28874U 05038A   25357.64550241 -.00000020  00000+0  00000+0 0  9995",
        "tle_line2": "2 28874  55.0222 280.2619 0131307 293.8052 272.4454  2.00577700148312"
      },
      "geometry": {
        "type": "Point",
        "coordinates": [
          -55.82999074965165,
          30.13640322394771
        ]
      }
    }
  ]
}